CTC2_L_00225001-01
1 10000U 23194VG  26075.70042824  .00000000  00000+0  00000-0 0  9996
2 10000  50.0000   0.0000 0000000   0.0000   0.0000 14.24551792    19
CTC2_L_00225001-02
1 10001U 22142LG  26075.70042824  .00000000  00000+0  00000-0 0  9999
2 10001  50.0000   0.0000 0000000   0.0000  90.0000 14.24551792    19
CTC2_L_00225001-03
1 10002U 23678YB  26075.70042824  .00000000  00000+0  00000-0 0  9995
2 10002  50.0000   0.0000 0000000   0.0000 180.0000 14.24551792    10
CTC2_L_00225001-04
1 10003U 26143AK  26075.70042824  .00000000  00000+0  00000-0 0  9996
2 10003  50.0000   0.0000 0000000   0.0000 270.0000 14.24551792    11
CTC2_L_00225002-01
1 10004U 22366SG  26075.70042824  .00000000  00000+0  00000-0 0  9990
2 10004  50.0000  12.0000 0000000   0.0000  12.0000 14.24551792    19
CTC2_L_00225002-02
1 10005U 22431HI  26075.70042824  .00000000  00000+0  00000-0 0  9994
2 10005  50.0000  12.0000 0000000   0.0000 102.0000 14.24551792    10
CTC2_L_00225002-03
1 10006U 23453WY  26075.70042824  .00000000  00000+0  00000-0 0  9990
2 10006  50.0000  12.0000 0000000   0.0000 192.0000 14.24551792    10
CTC2_L_00225002-04
1 10007U 24213MD  26075.70042824  .00000000  00000+0  00000-0 0  9996
2 10007  50.0000  12.0000 0000000   0.0000 282.0000 14.24551792    11
CTC2_L_00225003-01
1 10008U 26006XD  26075.70042824  .00000000  00000+0  00000-0 0  9999
2 10008  50.0000  24.0000 0000000   0.0000  24.0000 14.24551792    19
CTC2_L_00225003-02
1 10009U 25731D   26075.70042824  .00000000  00000+0  00000-0 0  9994
2 10009  50.0000  24.0000 0000000   0.0000 114.0000 14.24551792    10
CTC2_L_00225003-03
1 10010U 25972XU  26075.70042824  .00000000  00000+0  00000-0 0  9993
2 10010  50.0000  24.0000 0000000   0.0000 204.0000 14.24551792    12
CTC2_L_00225003-04
1 10011U 23568KZ  26075.70042824  .00000000  00000+0  00000-0 0  9993
2 10011  50.0000  24.0000 0000000   0.0000 294.0000 14.24551792    12
CTC2_L_00225004-01
1 10012U 26620ZZ  26075.70042824  .00000000  00000+0  00000-0 0  9996
2 10012  50.0000  36.0000 0000000   0.0000  36.0000 14.24551792    10
CTC2_L_00225004-02
1 10013U 24936UX  26075.70042824  .00000000  00000+0  00000-0 0  9995
2 10013  50.0000  36.0000 0000000   0.0000 126.0000 14.24551792    11
CTC2_L_00225004-03
1 10014U 26787AR  26075.70042824  .00000000  00000+0  00000-0 0  9992
2 10014  50.0000  36.0000 0000000   0.0000 216.0000 14.24551792    12
CTC2_L_00225004-04
1 10015U 25836YK  26075.70042824  .00000000  00000+0  00000-0 0  9997
2 10015  50.0000  36.0000 0000000   0.0000 306.0000 14.24551792    13
CTC2_L_00225005-01
1 10016U 25933JQ  26075.70042824  .00000000  00000+0  00000-0 0  9996
2 10016  50.0000  48.0000 0000000   0.0000  48.0000 14.24551792    10
CTC2_L_00225005-02
1 10017U 24066UQ  26075.70042824  .00000000  00000+0  00000-0 0  9993
2 10017  50.0000  48.0000 0000000   0.0000 138.0000 14.24551792    11
CTC2_L_00225005-03
1 10018U 23271TQ  26075.70042824  .00000000  00000+0  00000-0 0  9991
2 10018  50.0000  48.0000 0000000   0.0000 228.0000 14.24551792    12
CTC2_L_00225005-04
1 10019U 26500NO  26075.70042824  .00000000  00000+0  00000-0 0  9990
2 10019  50.0000  48.0000 0000000   0.0000 318.0000 14.24551792    13
CTC2_L_00225006-01
1 10020U 23171Y   26075.70042824  .00000000  00000+0  00000-0 0  9993
2 10020  50.0000  60.0000 0000000   0.0000  60.0000 14.24551792    13
CTC2_L_00225006-02
1 10021U 24029HD  26075.70042824  .00000000  00000+0  00000-0 0  9997
2 10021  50.0000  60.0000 0000000   0.0000 150.0000 14.24551792    14
CTC2_L_00225006-03
1 10022U 26990YS  26075.70042824  .00000000  00000+0  00000-0 0  9997
2 10022  50.0000  60.0000 0000000   0.0000 240.0000 14.24551792    15
CTC2_L_00225006-04
1 10023U 26062AZ  26075.70042824  .00000000  00000+0  00000-0 0  9998
2 10023  50.0000  60.0000 0000000   0.0000 330.0000 14.24551792    16
CTC2_L_00225007-01
1 10024U 26922WJ  26075.70042824  .00000000  00000+0  00000-0 0  9994
2 10024  50.0000  72.0000 0000000   0.0000  72.0000 14.24551792    13
CTC2_L_00225007-02
1 10025U 24074RE  26075.70042824  .00000000  00000+0  00000-0 0  9991
2 10025  50.0000  72.0000 0000000   0.0000 162.0000 14.24551792    14
CTC2_L_00225007-03
1 10026U 25263FI  26075.70042824  .00000000  00000+0  00000-0 0  9993
2 10026  50.0000  72.0000 0000000   0.0000 252.0000 14.24551792    15
CTC2_L_00225007-04
1 10027U 26237SO  26075.70042824  .00000000  00000+0  00000-0 0  9996
2 10027  50.0000  72.0000 0000000   0.0000 342.0000 14.24551792    16
CTC2_L_00225008-01
1 10028U 25718LV  26075.70042824  .00000000  00000+0  00000-0 0  9990
2 10028  50.0000  84.0000 0000000   0.0000  84.0000 14.24551792    13
CTC2_L_00225008-02
1 10029U 22758ZA  26075.70042824  .00000000  00000+0  00000-0 0  9992
2 10029  50.0000  84.0000 0000000   0.0000 174.0000 14.24551792    14
CTC2_L_00225008-03
1 10030U 26317SF  26075.70042824  .00000000  00000+0  00000-0 0  9999
2 10030  50.0000  84.0000 0000000   0.0000 264.0000 14.24551792    16
CTC2_L_00225008-04
1 10031U 23711XY  26075.70042824  .00000000  00000+0  00000-0 0  9995
2 10031  50.0000  84.0000 0000000   0.0000 354.0000 14.24551792    17
CTC2_L_00225009-01
1 10032U 22409AA  26075.70042824  .00000000  00000+0  00000-0 0  9999
2 10032  50.0000  96.0000 0000000   0.0000  96.0000 14.24551792    14
CTC2_L_00225009-02
1 10033U 22644LI  26075.70042824  .00000000  00000+0  00000-0 0  9991
2 10033  50.0000  96.0000 0000000   0.0000 186.0000 14.24551792    15
CTC2_L_00225009-03
1 10034U 23764WT  26075.70042824  .00000000  00000+0  00000-0 0  9996
2 10034  50.0000  96.0000 0000000   0.0000 276.0000 14.24551792    16
CTC2_L_00225009-04
1 10035U 26726ZC  26075.70042824  .00000000  00000+0  00000-0 0  9998
2 10035  50.0000  96.0000 0000000   0.0000   6.0000 14.24551792    18
CTC2_L_00225010-01
1 10036U 25610NU  26075.70042824  .00000000  00000+0  00000-0 0  9990
2 10036  50.0000 108.0000 0000000   0.0000 108.0000 14.24551792    16
CTC2_L_00225010-02
1 10037U 24998UW  26075.70042824  .00000000  00000+0  00000-0 0  9999
2 10037  50.0000 108.0000 0000000   0.0000 198.0000 14.24551792    16
CTC2_L_00225010-03
1 10038U 22664BX  26075.70042824  .00000000  00000+0  00000-0 0  9998
2 10038  50.0000 108.0000 0000000   0.0000 288.0000 14.24551792    17
CTC2_L_00225010-04
1 10039U 26788HW  26075.70042824  .00000000  00000+0  00000-0 0  9990
2 10039  50.0000 108.0000 0000000   0.0000  18.0000 14.24551792    19
CTC2_L_00225011-01
1 10040U 24580BA  26075.70042824  .00000000  00000+0  00000-0 0  9990
2 10040  50.0000 120.0000 0000000   0.0000 120.0000 14.24551792    19
CTC2_L_00225011-02
1 10041U 26395DS  26075.70042824  .00000000  00000+0  00000-0 0  9997
2 10041  50.0000 120.0000 0000000   0.0000 210.0000 14.24551792    10
CTC2_L_00225011-03
1 10042U 23259LH  26075.70042824  .00000000  00000+0  00000-0 0  9994
2 10042  50.0000 120.0000 0000000   0.0000 300.0000 14.24551792    11
CTC2_L_00225011-04
1 10043U 25964HN  26075.70042824  .00000000  00000+0  00000-0 0  9990
2 10043  50.0000 120.0000 0000000   0.0000  30.0000 14.24551792    12
CTC2_L_00225012-01
1 10044U 25460KC  26075.70042824  .00000000  00000+0  00000-0 0  9992
2 10044  50.0000 132.0000 0000000   0.0000 132.0000 14.24551792    19
CTC2_L_00225012-02
1 10045U 24082Y   26075.70042824  .00000000  00000+0  00000-0 0  9992
2 10045  50.0000 132.0000 0000000   0.0000 222.0000 14.24551792    10
CTC2_L_00225012-03
1 10046U 25444IC  26075.70042824  .00000000  00000+0  00000-0 0  9996
2 10046  50.0000 132.0000 0000000   0.0000 312.0000 14.24551792    11
CTC2_L_00225012-04
1 10047U 22473CF  26075.70042824  .00000000  00000+0  00000-0 0  9996
2 10047  50.0000 132.0000 0000000   0.0000  42.0000 14.24551792    12
CTC2_L_00225013-01
1 10048U 22315SX  26075.70042824  .00000000  00000+0  00000-0 0  9992
2 10048  50.0000 144.0000 0000000   0.0000 144.0000 14.24551792    19
CTC2_L_00225013-02
1 10049U 23909DR  26075.70042824  .00000000  00000+0  00000-0 0  9993
2 10049  50.0000 144.0000 0000000   0.0000 234.0000 14.24551792    10
CTC2_L_00225013-03
1 10050U 26068XH  26075.70042824  .00000000  00000+0  00000-0 0  9994
2 10050  50.0000 144.0000 0000000   0.0000 324.0000 14.24551792    12
CTC2_L_00225013-04
1 10051U 24750VN  26075.70042824  .00000000  00000+0  00000-0 0  9991
2 10051  50.0000 144.0000 0000000   0.0000  54.0000 14.24551792    13
CTC2_L_00225014-01
1 10052U 25624JM  26075.70042824  .00000000  00000+0  00000-0 0  9993
2 10052  50.0000 156.0000 0000000   0.0000 156.0000 14.24551792    10
CTC2_L_00225014-02
1 10053U 26347CI  26075.70042824  .00000000  00000+0  00000-0 0  9997
2 10053  50.0000 156.0000 0000000   0.0000 246.0000 14.24551792    11
CTC2_L_00225014-03
1 10054U 22936IK  26075.70042824  .00000000  00000+0  00000-0 0  9998
2 10054  50.0000 156.0000 0000000   0.0000 336.0000 14.24551792    12
CTC2_L_00225014-04
1 10055U 22225ZU  26075.70042824  .00000000  00000+0  00000-0 0  9990
2 10055  50.0000 156.0000 0000000   0.0000  66.0000 14.24551792    13
CTC2_L_00225015-01
1 10056U 22332SE  26075.70042824  .00000000  00000+0  00000-0 0  9990
2 10056  50.0000 168.0000 0000000   0.0000 168.0000 14.24551792    10
CTC2_L_00225015-02
1 10057U 22822JN  26075.70042824  .00000000  00000+0  00000-0 0  9995
2 10057  50.0000 168.0000 0000000   0.0000 258.0000 14.24551792    11
CTC2_L_00225015-03
1 10058U 25585QM  26075.70042824  .00000000  00000+0  00000-0 0  9995
2 10058  50.0000 168.0000 0000000   0.0000 348.0000 14.24551792    12
CTC2_L_00225015-04
1 10059U 22601PC  26075.70042824  .00000000  00000+0  00000-0 0  9992
2 10059  50.0000 168.0000 0000000   0.0000  78.0000 14.24551792    13
CTC2_L_00225016-01
1 10060U 25831XQ  26075.70042824  .00000000  00000+0  00000-0 0  9992
2 10060  50.0000 180.0000 0000000   0.0000 180.0000 14.24551792    13
CTC2_L_00225016-02
1 10061U 23609GQ  26075.70042824  .00000000  00000+0  00000-0 0  9994
2 10061  50.0000 180.0000 0000000   0.0000 270.0000 14.24551792    14
